STARLINK-6168           
1 57369U 23099AT  26202.69994783  .00025485  00000+0  85665-3 0  9996
2 57369  43.0019 204.0738 0001287 120.3029 239.7952 15.30345725166700
STARLINK-5353           
1 57370U 23099AU  26202.05246617 -.00000697  00000+0 -15806-4 0  9995
2 57370  43.0003 208.6623 0000738 287.7999  72.2772 15.27578251166597
STARLINK-6032           
1 57371U 23099AV  26203.14604412  .00000486  00000+0  27178-4 0  9997
2 57371  43.0018 202.2560 0001061 275.2077  84.8654 15.27579058166766
STARLINK-5975           
1 57372U 23099AW  26202.06402767 -.00000268  00000+0 -24074-6 0  9991
2 57372  43.0019 208.7367 0000605 228.5016 131.5784 15.27576633166592
STARLINK-6370           
1 57373U 23099AX  26202.97300944 -.00000723  00000+0 -16758-4 0  9990
2 57373  43.0016 203.5251 0001307 299.6590  60.4131 15.27578557166730
STARLINK-6369           
1 57374U 23099AY  26203.29837368  .00000711  00000+0  35375-4 0  9993
2 57374  43.0009 183.5567 0001105 271.0202  89.0523 15.27576015166997
STARLINK-6363           
1 57375U 23099AZ  26202.97172507  .00000529  00000+0  28724-4 0  9992
2 57375  43.0009 203.5189 0000973 273.7131  86.3609 15.27580460166739
STARLINK-6367           
1 57376U 23099BA  26202.03367252  .00001188  00000+0  52701-4 0  9997
2 57376  42.9979 205.1177 0001363 273.8242  86.2454 15.27581614166635
STARLINK-6358           
1 57377U 23099BB  26202.71611982  .00001704  00000+0  71404-4 0  9990
2 57377  43.0011 208.4687 0001055 282.6141  77.4593 15.27591812166649
STARLINK-6364           
1 57378U 23099BC  26203.29838308  .00000218  00000+0  17449-4 0  9996
2 57378  43.0021 172.2595 0001043 275.1836  84.8897 15.27579373167864
STARLINK-6361           
1 57379U 23099BD  26203.01064191 -.00002314  00000+0 -74651-4 0  9997
2 57379  43.0014 199.5489 0000866 268.4260  91.6493 15.27559675166780
STARLINK-6366           
1 57380U 23099BE  26203.30223715 -.00000198  00000+0  23385-5 0  9996
2 57380  43.0022 172.2797 0000912 262.6737  97.4011 15.27579584167858
STARLINK-6371           
1 57381U 23099BF  26203.29452007  .00001485  00000+0  63493-4 0  9995
2 57381  43.0015 183.5166 0000998 283.4619  76.6122 15.27567025167736
STARLINK-30240          
1 57404U 23102A   26202.36558227  .00000338  00000+0  21801-4 0  9997
2 57404  43.0026 213.6757 0002168 278.8653  81.1954 15.27583858166681
STARLINK-30195          
1 57406U 23102C   26203.25002315  .01032941  00000+0  63651-2 0  9993
2 57406  42.9992 208.1950 0001594 286.7484  43.8644 15.73876440  5595
STARLINK-30207          
1 57407U 23102D   26202.96102870 -.00001876  00000+0 -58689-4 0  9999
2 57407  43.0029 195.7797 0001257 278.6187  81.4522 15.27558478166953
STARLINK-30205          
1 57408U 23102E   26203.30203006  .00002202  00000+0  89141-4 0  9991
2 57408  43.0041 208.6763 0001462 283.7746  76.2943 15.27720864166826
STARLINK-30222          
1 57409U 23102F   26202.42197753 -.00003321  00000+0 -11117-3 0  9997
2 57409  43.0010 213.2395 0000812 246.1239 113.9528 15.27588145166691
STARLINK-30172          
1 57410U 23102G   26203.00545997  .00001531  00000+0  65145-4 0  9991
2 57410  43.0026 210.7258 0001395 287.2363  72.8336 15.27584786166777
STARLINK-30214          
1 57411U 23102H   26203.00788089  .00001465  00000+0  62765-4 0  9994
2 57411  43.0047 209.9056 0001759 283.6475  76.4181 15.27582544166739
STARLINK-30182          
1 57412U 23102J   26203.14764850  .00001858  00000+0  77018-4 0  9993
2 57412  43.0043 209.2284 0001793 277.5325  82.5323 15.27584300166802
STARLINK-30191          
1 57413U 23102K   26202.83610291  .00002898  00000+0  11476-3 0  9998
2 57413  43.0028 149.0623 0000922 283.8447  76.2302 15.27589813167488
STARLINK-30193          
1 57414U 23102L   26203.25002315  .00221132  00000+0  32348-2 0  9992
2 57414  43.0005 200.6386 0001587 272.4259 359.0156 15.54083976  5914
STARLINK-30208          
1 57415U 23102M   26203.01302641 -.00000215  00000+0  17278-5 0  9998
2 57415  43.0027 209.9344 0001226 264.7070  95.3642 15.27580614166739
STARLINK-30224          
1 57416U 23102N   26202.30148485  .00002243  00000+0  91023-4 0  9995
2 57416  43.0033 214.0527 0001495 273.9499  86.1182 15.27581843166677
STARLINK-30043          
1 57417U 23102P   26202.30276735  .00000071  00000+0  12101-4 0  9993
2 57417  43.0026 214.0630 0001730 274.6519  85.4135 15.27576894166678
STARLINK-30221          
1 57418U 23102Q   26203.31341452 -.00000377  00000+0 -41882-5 0  9995
2 57418  43.0009 215.5725 0001738 271.3245  88.7408 15.27574918166741
STARLINK-30188          
1 57432U 23105C   26203.25002315  .01207560  00000+0  12559-1 0  9996
2 57432  42.9991 219.0751 0001705 283.0655 312.8609 15.61393078  5810
STARLINK-30105          
1 57433U 23105D   26202.78516924  .00000533  00000+0  28883-4 0  9990
2 57433  43.0031 353.5345 0001128 269.3770  90.6953 15.27578130168836
STARLINK-30102          
1 57434U 23105E   26202.09377007  .00001295  00000+0  56602-4 0  9998
2 57434  43.0004 226.5084 0001273 279.4812  80.5895 15.27568650165933
STARLINK-30158          
1 57438U 23105J   26202.42327078  .00000659  00000+0  33455-4 0  9996
2 57438  42.9999 224.6804 0001373 270.7763  89.2931 15.27578451166036
STARLINK-30160          
1 57441U 23105M   26202.15302946  .00000820  00000+0  39328-4 0  9992
2 57441  43.0030 232.9116 0001804 278.6054  81.4593 15.27578097165757
STARLINK-30146          
1 57442U 23105N   26202.42713902  .00001429  00000+0  61438-4 0  9994
2 57442  43.0000 224.7070 0001310 275.7980  84.2722 15.27583125166092
STARLINK-30197          
1 57443U 23105P   26202.47195594  .00000647  00000+0  33050-4 0  9991
2 57443  43.0008 224.1865 0001515 277.4785  82.5895 15.27579394166046
STARLINK-30181          
1 57444U 23105Q   26202.47659958  .00001704  00000+0  71438-4 0  9998
2 57444  43.0031 227.6308 0001859 272.6667  87.3972 15.27585781166068
STARLINK-30215          
1 57445U 23105R   26202.10791955  .00001577  00000+0  66844-4 0  9996
2 57445  43.0007 226.6103 0001012 270.8356  89.2380 15.27561512165823
STARLINK-30162          
1 57446U 23105S   26202.35023444 -.00000181  00000+0  29260-5 0  9998
2 57446  43.0024 213.9574 0001057 273.3681  86.7049 15.27574980166156
STARLINK-30178          
1 57447U 23105T   26202.10405227 -.00000204  00000+0  21192-5 0  9997
2 57447  43.0002 226.5817 0001103 278.9027  81.1700 15.27575689165980
STARLINK-30196          
1 57448U 23105U   26203.31891154  .00000980  00000+0  45144-4 0  9992
2 57448  43.0032 222.7681 0001898 276.5011  83.5624 15.27583150165971
STARLINK-30225          
1 57449U 23105V   26203.32276723  .00000395  00000+0  23889-4 0  9995
2 57449  43.0047 222.7975 0002048 283.5911  76.4712 15.27580630166193
STARLINK-30217          
1 57450U 23105W   26203.00667053  .00000984  00000+0  45289-4 0  9994
2 57450  43.0048 210.3322 0001783 283.4014  76.6639 15.27580536166255
STARLINK-30216          
1 57451U 23105X   26202.05651206 -.00000149  00000+0  41169-5 0  9990
2 57451  43.0042 226.2428 0001868 287.0107  73.0540 15.27574207165822
STARLINK-30165          
1 57457U 23107A   26202.59324756  .00002510  00000+0  10074-3 0  9996
2 57457  43.0052 300.0862 0001791 271.9435  88.1212 15.27569017165616
STARLINK-30140          
1 57458U 23107B   26202.63500416  .00001628  00000+0  68675-4 0  9991
2 57458  43.0020 302.9489 0001294 274.1973  85.8731 15.27584384165599
STARLINK-30077          
1 57460U 23107D   26202.55084258  .00000125  00000+0  14065-4 0  9991
2 57460  43.0009 299.7726 0001242 259.8725 100.1987 15.27579300165624
STARLINK-30229          
1 57461U 23107E   26202.68847923  .00001292  00000+0  56452-4 0  9994
2 57461  43.0028 306.7569 0000966 240.6659 119.4096 15.27588899165555
STARLINK-30088          
1 57462U 23107F   26202.99069406  .00001579  00000+0  66883-4 0  9998
2 57462  43.0011 297.9097 0000973 253.3448 106.7297 15.27587781165685
STARLINK-30116          
1 57465U 23107J   26203.30735240  .00000069  00000+0  12055-4 0  9998
2 57465  43.0044 295.9839 0001904 261.7284  98.3352 15.27581778165736
STARLINK-30092          
1 57467U 23107L   26203.31117902  .00003356  00000+0  13131-3 0  9997
2 57467  43.0046 296.0112 0001927 264.8293  95.2339 15.27609207165734
STARLINK-30039          
1 57468U 23107M   26203.31506009  .00000764  00000+0  37289-4 0  9999
2 57468  43.0053 296.0422 0001748 277.4830  82.5823 15.27584654165730
STARLINK-30171          
1 57469U 23107N   26202.63886027  .00001232  00000+0  54270-4 0  9995
2 57469  43.0038 302.9772 0001709 275.1550  84.9107 15.27586468165590
STARLINK-30186          
1 57470U 23107P   26203.25002315  .00246332  00000+0  34048-2 0  9997
2 57470  42.9993 297.3809 0001631 285.4431 332.8564 15.55537784  5597
STARLINK-30204          
1 57472U 23107R   26203.29708712 -.00000998  00000+0 -26726-4 0  9991
2 57472  43.0052 295.9070 0002173 284.4453  75.6158 15.27567328165736
STARLINK-30155          
1 57475U 23107U   26202.35596040  .00001439  00000+0  61797-4 0  9995
2 57475  43.0027 300.8841 0001739 265.9431  94.1222 15.27584896165591
STARLINK-30161          
1 57476U 23107V   26202.29442835  .00002124  00000+0  86691-4 0  9993
2 57476  43.0034 301.2821 0001068 266.9120  93.1609 15.27572805165588
STARLINK-30176          
1 57477U 23107W   26202.29828664  .00012103  00000+0  44841-3 0  9990
2 57477  43.0010 301.3071 0001649 269.2646  90.8016 15.27593705165583
STARLINK-30154          
1 57495U 23113A   26202.77409230  .00003132  00000+0  12327-3 0  9990
2 57495  43.0029 338.6534 0001314 267.7741  92.2960 15.27585630164028
STARLINK-30145          
1 57496U 23113B   26202.72264591 -.00594571  00000+0 -23541-1 0  9997
2 57496  43.0007 339.1383 0000715 328.7397  31.3412 15.26977234164066
STARLINK-30226          
1 57497U 23113C   26202.66131133  .00001136  00000+0  50790-4 0  9993
2 57497  43.0027 339.5493 0001814 256.6082 103.4567 15.27580920164061
STARLINK-30203          
1 57498U 23113D   26202.76895471  .00000337  00000+0  21782-4 0  9998
2 57498  43.0053 338.6303 0002251 268.4604  91.5990 15.27574955164202
